ONEWEB-0709             
1 55172U 23004AJ  25235.79954086  .00000469  00000+0  12886-2 0  9999
2 55172  87.8774  80.3548 0000814  79.5219 280.6001 13.11417506126899
ONEWEB-0710             
1 55173U 23004AK  25235.91368251  .00000066  00000+0  13589-3 0  9992
2 55173  87.9025  65.0277 0001844  94.4777 265.6566 13.17649532128431
ONEWEB-0711             
1 55174U 23004AL  25235.84698250 -.00000750  00000+0 -21522-2 0  9997
2 55174  87.8781  80.3128 0002152 105.0734 255.0632 13.11420755126860
ONEWEB-0713             
1 55175U 23004AM  25235.94195397  .00000462  00000+0  12667-2 0  9991
2 55175  87.8774  80.3013 0001870  94.2341 265.9001 13.11416728126860
ONEWEB-0715             
1 55176U 23004AN  25235.93686682  .00000477  00000+0  13104-2 0  9996
2 55176  87.8775  80.3029 0001438  90.8894 269.2398 13.11416819126906
ONEWEB-0716             
1 55177U 23004AP  25235.90691655  .00000063  00000+0  12974-3 0  9996
2 55177  87.9026  65.0289 0001808  82.4367 277.6970 13.17649035128431
ONEWEB-0717             
1 55178U 23004AQ  25235.89002603 -.00000229  00000+0 -62234-3 0  9994
2 55178  87.9029  64.9928 0002054 111.0635 249.0716 13.17648471128483
ONEWEB-0719             
1 55179U 23004AR  25235.82424151  .00000059  00000+0  11747-3 0  9996
2 55179  87.9033  64.9891 0001948  84.6578 275.4775 13.17649799128426
ONEWEB-0530             
1 55796U 23029A   25235.82080996 -.00000070  00000+0 -20387-3 0  9998
2 55796  87.9300 333.7499 0002431 107.0307 253.1093 13.20770819121899
ONEWEB-0534             
1 55797U 23029B   25235.80819443 -.00000010  00000+0 -57584-4 0  9998
2 55797  87.9289 333.7579 0001929  95.8434 264.2919 13.20770931121896
ONEWEB-0556             
1 55798U 23029C   25235.81449769 -.00000040  00000+0 -13137-3 0  9998
2 55798  87.9299 333.7507 0002655  91.3524 268.7913 13.20770408121899
ONEWEB-0562             
1 55799U 23029D   25235.80187305 -.00000089  00000+0 -25037-3 0  9998
2 55799  87.9289 333.7423 0002873 103.7933 256.3520 13.20772835121893
ONEWEB-0563             
1 55800U 23029E   25235.79555638 -.00000092  00000+0 -25808-3 0  9997
2 55800  87.9294 333.7624 0002036  93.7747 266.3620 13.20773631121883
ONEWEB-0564             
1 55801U 23029F   25235.71348515  .00000032  00000+0  45674-4 0  9990
2 55801  87.9291 333.7624 0002286 104.7517 255.3870 13.20772945121888
ONEWEB-0638             
1 55802U 23029G   25235.84864690  .00000062  00000+0  13394-3 0  9998
2 55802  87.9097 348.9509 0002363  94.4050 265.7349 13.14503081120337
ONEWEB-0639             
1 55803U 23029H   25235.90590002 -.00000095  00000+0 -27057-3 0  9998
2 55803  87.9267   4.0871 0001428  59.3549 300.7724 13.19725489119690
ONEWEB-0640             
1 55804U 23029J   25235.85816767  .00000132  00000+0  32275-3 0  9990
2 55804  87.9090 348.9351 0002287  83.3679 276.7711 13.14502270120352
ONEWEB-0641             
1 55805U 23029K   25235.90116056 -.00000119  00000+0 -32921-3 0  9996
2 55805  87.9274   4.0599 0001690  93.0746 267.0580 13.19725647119705
ONEWEB-0642             
1 55806U 23029L   25235.89641182 -.00000031  00000+0 -11049-3 0  9999
2 55806  87.9266   4.0964 0001169  72.4705 287.6556 13.19727036119693
ONEWEB-0643             
1 55807U 23029M   25235.82803363  .00000121  00000+0  29315-3 0  9997
2 55807  87.9091 348.9245 0001106  95.2597 264.8659 13.14502682120321
ONEWEB-0644             
1 55808U 23029N   25235.89166857 -.00000102  00000+0 -28827-3 0  9993
2 55808  87.9272   4.1042 0001429  88.0762 272.0535 13.19727358119697
ONEWEB-0645             
1 55809U 23029P   25235.88774187 -.00000014  00000+0 -68072-4 0  9993
2 55809  87.9255   4.0934 0001865  87.2781 272.8565 13.19724887119699
ONEWEB-0646             
1 55810U 23029Q   25235.92334678  .00000023  00000+0  25141-4 0  9995
2 55810  87.9256   4.0805 0001592  95.8217 264.3097 13.19254675119683
ONEWEB-0648             
1 55811U 23029R   25235.87244561 -.00000144  00000+0 -42291-3 0  9991
2 55811  87.9082 348.8885 0001642  67.6929 292.4375 13.14504279120339
ONEWEB-0649             
1 55812U 23029S   25235.88063229 -.00000035  00000+0 -12022-3 0  9991
2 55812  87.9268   4.0822 0001650  82.9086 277.2234 13.19725100119719
ONEWEB-0650             
1 55813U 23029T   25235.87589546 -.00000076  00000+0 -22200-3 0  9990
2 55813  87.9265   4.0941 0001644  93.9102 266.2219 13.19725057119681
ONEWEB-0652             
1 55814U 23029U   25235.85340871  .00000136  00000+0  33319-3 0  9993
2 55814  87.9093 348.9052 0001945 103.3523 256.7824 13.14501927120301
ONEWEB-0653             
1 55815U 23029V   25235.83755942  .00000178  00000+0  44511-3 0  9993
2 55815  87.9091 348.8976 0002060  98.6095 261.5269 13.14503214120334
ONEWEB-0654             
1 55816U 23029W   25235.83279039  .00000118  00000+0  28376-3 0  9997
2 55816  87.9088 348.8969 0002178 106.1112 254.0258 13.14503682120354
ONEWEB-0656             
1 55817U 23029X   25235.70716478  .00000020  00000+0  17457-4 0  9998
2 55817  87.9303 333.7094 0002313 107.2314 252.9072 13.20770890121888
ONEWEB-0657             
1 55818U 23029Y   25235.87114880  .00000011  00000+0 -36064-5 0  9993
2 55818  87.9267   4.0997 0001777 123.7317 236.3985 13.19722108119699
ONEWEB-0658             
1 55819U 23029Z   25235.86641779 -.00000011  00000+0 -58829-4 0  9998
2 55819  87.9274   4.0360 0001454  87.7091 272.4208 13.19724769119708
ONEWEB-0660             
1 55820U 23029AA  25235.81059575 -.00000249  00000+0 -70565-3 0  9995
2 55820  87.9094 348.8730 0001924  89.6079 270.5271 13.14503439120333
ONEWEB-0661             
1 55821U 23029AB  25235.84548297  .00000272  00000+0  70046-3 0  9991
2 55821  87.9095 348.9380 0002012  89.7591 270.3770 13.14502630120329
ONEWEB-0662             
1 55822U 23029AC  25235.88036236 -.00000291  00000+0 -82051-3 0  9993
2 55822  87.9094 348.9376 0001829  87.9877 272.1462 13.14503436120374
ONEWEB-0663             
1 55823U 23029AD  25235.83620053  .00000020  00000+0  16587-4 0  9995
2 55823  87.9313 333.7404 0001798  85.6442 274.4897 13.20843742121890
ONEWEB-0664             
1 55824U 23029AE  25235.77029003  .00000057  00000+0  10709-3 0  9996
2 55824  87.9307 333.7748 0002307  95.9736 264.1661 13.20773309121887
ONEWEB-0665             
1 55825U 23029AF  25235.84230299  .00000177  00000+0  44189-3 0  9998
2 55825  87.9097 348.9137 0001809  90.7155 269.4182 13.14501237120346
ONEWEB-0666             
1 55826U 23029AG  25235.83973462 -.00000020  00000+0 -81052-4 0  9994
2 55826  87.9304 333.7493 0001981 122.0170 238.1156 13.20770312121908
ONEWEB-0667             
1 55827U 23029AH  25235.83342501  .00000041  00000+0  67862-4 0  9993
2 55827  87.9298 333.6785 0001921  93.5771 266.5583 13.20774120121895
ONEWEB-0669             
1 55828U 23029AJ  25235.82870129  .00000011  00000+0 -38318-5 0  9998
2 55828  87.9304 333.7181 0002595 106.5956 253.5462 13.20772632121891
ONEWEB-0670             
1 55829U 23029AK  25235.82010209 -.00000092  00000+0 -28282-3 0  9991
2 55829  87.9095 348.9383 0002131  91.2683 268.8691 13.14501726120365
ONEWEB-0671             
1 55830U 23029AL  25235.86167844  .00000033  00000+0  50064-4 0  9992
2 55830  87.9266   4.0939 0001876  92.2701 267.8647 13.19726108119682
ONEWEB-0672             
1 55831U 23029AM  25235.82396637  .00000005  00000+0 -20335-4 0  9991
2 55831  87.9295 333.7037 0002030 108.3851 251.7503 13.20771442121896
ONEWEB-0673             
1 55832U 23029AN  25235.91378824 -.00000027  00000+0 -10097-3 0  9998
2 55832  87.9274   4.0484 0001651  94.1282 266.0040 13.19726784119693
ONEWEB-0674             
1 55833U 23029AP  25235.86451836 -.00000063  00000+0 -20504-3 0  9992
2 55833  87.9096 348.9128 0002248  91.3559 268.7829 13.14503532120358
ONEWEB-0675             
1 55834U 23029AQ  25235.85377112 -.00000006  00000+0 -46213-4 0  9999
2 55834  87.9266   4.1061 0001608 106.5816 253.5494 13.19726716119702
ONEWEB-0720             
1 55835U 23029AR  25235.92170213  .00000058  00000+0  11183-3 0  9993
2 55835  87.9264   4.0900 0001684  85.2099 274.9226 13.19725178119635
ONEWEB-0537             
1 56046U 23043A   25235.89449936  .00000195  00000+0  47626-3 0  9994
2 56046  87.9021 288.0214 0001954 102.3209 257.8141 13.16594556119847
ONEWEB-0538             
1 56047U 23043B   25235.88815780 -.00000055  00000+0 -17866-3 0  9998
2 56047  87.9012 288.0365 0001680  97.9562 262.1760 13.16593234119851
ONEWEB-0546             
1 56048U 23043C   25235.87548804 -.00000187  00000+0 -52268-3 0  9999
2 56048  87.9023 288.0190 0002176 114.8733 245.2624 13.16593285119846
ONEWEB-0547             
1 56049U 23043D   25235.91398397  .00000037  00000+0  58065-4 0  9999
2 56049  87.9244 303.2933 0001781  94.8787 265.2550 13.21825752118958
ONEWEB-0548             
1 56050U 23043E   25235.90083701  .00000097  00000+0  22061-3 0  9992
2 56050  87.9006 288.0406 0002445  91.1691 268.9720 13.16592787119844
ONEWEB-0549             
1 56051U 23043F   25235.90530942 -.00000009  00000+0 -53568-4 0  9999
2 56051  87.9246 303.3097 0001723  93.9525 266.1806 13.21824905118954
ONEWEB-0550             
1 56052U 23043G   25235.89268582 -.00000057  00000+0 -16878-3 0  9991
2 56052  87.9250 303.3062 0002172  98.3480 261.7900 13.21827136118955
ONEWEB-0551             
1 56053U 23043H   25235.92320189  .00000108  00000+0  25407-3 0  9991
2 56053  87.9070 318.5383 0001750  93.5242 266.6089 13.15549067117312
ONEWEB-0552             
1 56054U 23043J   25235.88638526  .00000056  00000+0  10442-3 0  9999
2 56054  87.9247 303.3160 0001912  88.3440 271.7913 13.21825554118955
ONEWEB-0553             
1 56055U 23043K   25235.88182661  .00000042  00000+0  77005-4 0  9998
2 56055  87.9013 288.0364 0002203 105.1989 254.9386 13.16593156119853
ONEWEB-0554             
1 56056U 23043L   25235.86914398 -.00000037  00000+0 -13143-3 0  9995
2 56056  87.9007 288.0644 0002256  94.2775 265.8614 13.16592084119839
